NORAD_CAT_ID,OBJECT_NAME,OBJECT_TYPE,EPOCH,MEAN_MOTION,ECCENTRICITY,INCLINATION,RA_OF_ASC_NODE,ARG_OF_PERICENTER,MEAN_ANOMALY,BSTAR,MEAN_MOTION_DOT,MEAN_MOTION_DDOT,TLE_LINE0,TLE_LINE1,TLE_LINE2,SEMIMAJOR_AXIS,PERIOD,APOGEE,PERIGEE,DECAYED
55276.0,STARLINK-5261,PAYLOAD,2024-05-23 16:32:20,14.98362802,0.0003114,70.0002,236.0564,262.9231,97.1574,-0.00057383,-6.939e-05,0.0,0 STARLINK-5261,1 55276U 23010H   24144.68912644 -.00006939  00000-0 -57383-3 0  9994,2 55276  70.0002 236.0564 0003114 262.9231  97.1574 14.98362802 74856,6950.091,96.105,574.121,569.792,0.0
55276.0,STARLINK-5261,PAYLOAD,2024-05-24 05:21:25,14.98335338,0.0003017,69.9998,234.7093,264.8084,95.2731,-1.3753e-05,-2.57e-06,0.0,0 STARLINK-5261,1 55276U 23010H   24145.22321005 -.00000257  00000-0 -13753-4 0  9991,2 55276  69.9998 234.7093 0003017 264.8084  95.2731 14.98335338 74935,6950.176,96.107,574.138,569.945,0.0
55276.0,STARLINK-5261,PAYLOAD,2024-05-24 13:22:05,14.98343877,0.0002827,70.0001,233.8678,263.6629,96.4208,1.0368e-05,3.1e-07,0.0,0 STARLINK-5261,1 55276U 23010H   24145.55700232  .00000031  00000-0  10368-4 0  9997,2 55276  70.0001 233.8678 0002827 263.6629  96.4208 14.98343877 75280,6950.15,96.106,573.98,570.05,0.0
55276.0,STARLINK-5261,PAYLOAD,2024-05-24 16:34:20,14.9834347,0.0002874,70.0004,233.531,261.5924,98.491,9.8131e-05,1.078e-05,0.0,0 STARLINK-5261,1 55276U 23010H   24145.69051898  .00001078  00000-0  98131-4 0  9995,2 55276  70.0004 233.5310 0002874 261.5924  98.4910 14.98343470 75001,6950.151,96.106,574.014,570.019,0.0
55276.0,STARLINK-5261,PAYLOAD,2024-05-25 05:23:26,14.98320959,0.0002553,70.0019,232.1878,266.6737,93.413,2.3819e-05,1.91e-06,0.0,0 STARLINK-5261,1 55276U 23010H   24146.22461478  .00000191  00000-0  23819-4 0  9990,2 55276  70.0019 232.1878 0002553 266.6737  93.4130 14.98320959 75087,6950.221,96.108,573.86,570.311,0.0
55276.0,STARLINK-5261,PAYLOAD,2024-05-25 11:47:59,14.98317051,0.0002878,70.0002,231.512,266.6333,93.4497,-9.5662e-05,-1.234e-05,0.0,0 STARLINK-5261,1 55276U 23010H   24146.49166190 -.00001234  00000-0 -95662-4 0  9998,2 55276  70.0002 231.5120 0002878 266.6333  93.4497 14.98317051 75124,6950.233,96.108,574.098,570.098,0.0
55276.0,STARLINK-5261,PAYLOAD,2024-05-25 13:24:07,14.98317876,0.0003072,69.9994,231.3424,268.3143,91.7664,-6.6099e-05,-8.81e-06,0.0,0 STARLINK-5261,1 55276U 23010H   24146.55842064 -.00000881  00000-0 -66099-4 0  9995,2 55276  69.9994 231.3424 0003072 268.3143  91.7664 14.98317876 75437,6950.23,96.108,574.23,569.96,0.0
55276.0,STARLINK-5261,PAYLOAD,2024-05-25 23:00:53,14.98348596,0.0003277,69.9994,230.3327,266.6179,93.4605,0.00017937,2.049e-05,0.0,0 STARLINK-5261,1 55276U 23010H   24146.95895423  .00002049  00000-0  17937-3 0  9998,2 55276  69.9994 230.3327 0003277 266.6179  93.4605 14.98348596 75195,6950.135,96.106,574.278,569.723,0.0
55276.0,STARLINK-5261,PAYLOAD,2024-05-26 11:49:59,14.98331763,0.0002938,69.9998,228.9863,254.6111,105.4723,-8.7688e-05,-1.139e-05,0.0,0 STARLINK-5261,1 55276U 23010H   24147.49304438 -.00001139  00000-0 -87688-4 0  9991,2 55276  69.9998 228.9863 0002938 254.6111 105.4723 14.98331763 75275,6950.187,96.107,574.094,570.01,0.0
55276.0,STARLINK-5261,PAYLOAD,2024-05-26 15:02:16,14.983135,0.0002792,70.0002,228.6504,271.0237,89.0602,-0.00028232,-3.458e-05,0.0,0 STARLINK-5261,1 55276U 23010H   24147.62657909 -.00003458  00000-0 -28232-3 0  9995,2 55276  70.0002 228.6504 0002792 271.0237  89.0602 14.98313500 75590,6950.244,96.108,574.049,570.168,0.0
55276.0,STARLINK-5261,PAYLOAD,2024-05-27 05:27:28,14.98308518,0.0003013,70.0001,227.1351,274.9339,85.1476,-5.1009e-05,-7.01e-06,0.0,0 STARLINK-5261,1 55276U 23010H   24148.22741399 -.00000701  00000-0 -51009-4 0  9996,2 55276  70.0001 227.1351 0003013 274.9339  85.1476 14.98308518 75381,6950.259,96.108,574.218,570.03,0.0
55276.0,STARLINK-5261,PAYLOAD,2024-05-27 13:28:08,14.98315892,0.0003421,69.9989,226.2948,270.8181,89.2586,-6.1502e-05,-8.27e-06,0.0,0 STARLINK-5261,1 55276U 23010H   24148.56121285 -.00000827  00000-0 -61502-4 0  9997,2 55276  69.9989 226.2948 0003421 270.8181  89.2586 14.98315892 75737,6950.237,96.108,574.479,569.724,0.0
55276.0,STARLINK-5261,PAYLOAD,2024-05-27 15:04:16,14.98315776,0.000346,69.9988,226.1263,271.229,88.8472,-6.6766e-05,-8.89e-06,0.0,0 STARLINK-5261,1 55276U 23010H   24148.62797353 -.00000889  00000-0 -66766-4 0  9994,2 55276  69.9988 226.1263 0003460 271.2290  88.8472 14.98315776 75745,6950.237,96.108,574.507,569.697,0.0
55276.0,STARLINK-5261,PAYLOAD,2024-05-28 05:29:28,14.98338349,0.0003233,69.9992,224.6098,267.951,92.1279,-0.00029159,-3.571e-05,0.0,0 STARLINK-5261,1 55276U 23010H   24149.22880711 -.00003571  00000-0 -29159-3 0  9997,2 55276  69.9992 224.6098 0003233 267.9510  92.1279 14.98338349 75535,6950.167,96.106,574.279,569.785,0.0
55276.0,STARLINK-5261,PAYLOAD,2024-05-28 13:30:08,14.98340206,0.0003303,69.9993,223.7684,270.5906,89.4875,-0.00018534,-2.304e-05,0.0,0 STARLINK-5261,1 55276U 23010H   24149.56260140 -.00002304  00000-0 -18534-3 0  9990,2 55276  69.9993 223.7684 0003303 270.5906  89.4875 14.98340206 75888,6950.161,96.106,574.322,569.731,0.0
55276.0,STARLINK-5261,PAYLOAD,2024-05-28 15:06:16,14.98340104,0.0003321,69.9993,223.6001,271.4468,88.6311,-0.00016909,-2.111e-05,0.0,0 STARLINK-5261,1 55276U 23010H   24149.62936072 -.00002111  00000-0 -16909-3 0  9991,2 55276  69.9993 223.6001 0003321 271.4468  88.6311 14.98340104 75897,6950.162,96.106,574.335,569.718,0.0
55276.0,STARLINK-5261,PAYLOAD,2024-05-29 05:31:29,14.98316869,0.0003326,69.9994,222.0853,275.9737,84.1043,0.00012803,1.434e-05,0.0,0 STARLINK-5261,1 55276U 23010H   24150.23020739  .00001434  00000-0  12803-3 0  9998,2 55276  69.9994 222.0853 0003326 275.9737  84.1043 14.98316869 75680,6950.233,96.108,574.41,569.787,0.0
55276.0,STARLINK-5261,PAYLOAD,2024-05-29 13:32:10,14.98319949,0.0003296,69.9995,221.2437,275.2953,84.783,0.00014848,1.679e-05,0.0,0 STARLINK-5261,1 55276U 23010H   24150.56400729  .00001679  00000-0  14848-3 0  9997,2 55276  69.9995 221.2437 0003296 275.2953  84.7830 14.98319949 76031,6950.224,96.108,574.38,569.798,0.0
55276.0,STARLINK-5261,PAYLOAD,2024-05-29 15:08:18,14.98323392,0.0003226,69.9996,221.0753,274.0382,86.0409,9.661e-05,1.06e-05,0.0,0 STARLINK-5261,1 55276U 23010H   24150.63076724  .00001060  00000-0  96610-4 0  9991,2 55276  69.9996 221.0753 0003226 274.0382  86.0409 14.98323392 76042,6950.213,96.107,574.32,569.836,0.0
55276.0,STARLINK-5261,PAYLOAD,2024-05-30 05:33:30,14.9832889,0.0003242,69.9996,219.5607,274.1131,85.9657,8.1885e-05,8.84e-06,0.0,0 STARLINK-5261,1 55276U 23010H   24151.23160550  .00000884  00000-0  81885-4 0  9990,2 55276  69.9996 219.5607 0003242 274.1131  85.9657 14.98328890 75830,6950.196,96.107,574.315,569.808,0.0
55276.0,STARLINK-5261,PAYLOAD,2024-05-30 13:34:10,14.9833247,0.0003241,69.9996,218.7188,274.2831,85.7957,6.8016e-05,7.19e-06,0.0,0 STARLINK-5261,1 55276U 23010H   24151.56540350  .00000719  00000-0  68016-4 0  9994,2 55276  69.9996 218.7188 0003241 274.2831  85.7957 14.98332470 76181,6950.185,96.107,574.303,569.798,0.0
55276.0,STARLINK-5261,PAYLOAD,2024-05-31 12:00:04,14.98326821,0.0003169,69.9995,216.3624,272.4485,87.6311,-1.1616e-05,-2.32e-06,0.0,0 STARLINK-5261,1 55276U 23010H   24152.50004940 -.00000232  00000-0 -11616-4 0  9995,2 55276  69.9995 216.3624 0003169 272.4485  87.6311 14.98326821 76024,6950.203,96.107,574.27,569.865,0.0
55276.0,STARLINK-5261,PAYLOAD,2024-05-31 13:36:12,14.98327202,0.0003171,69.9995,216.1942,272.721,87.3586,-7.5927e-06,-1.84e-06,0.0,0 STARLINK-5261,1 55276U 23010H   24152.56680914 -.00000184  00000-0 -75927-5 0  9994,2 55276  69.9995 216.1942 0003171 272.7210  87.3586 14.98327202 76336,6950.202,96.107,574.27,569.863,0.0
55276.0,STARLINK-5261,PAYLOAD,2024-06-01 12:02:05,14.98327855,0.0003358,69.9992,213.836,270.4258,89.6516,-9.5344e-05,-1.23e-05,0.0,0 STARLINK-5261,1 55276U 23010H   24153.50145226 -.00001230  00000-0 -95344-4 0  9998,2 55276  69.9992 213.8360 0003358 270.4258  89.6516 14.98327855 76179,6950.2,96.107,574.398,569.731,0.0
55276.0,STARLINK-5261,PAYLOAD,2024-06-01 13:38:13,14.98326558,0.0003201,69.9992,213.6681,268.8404,91.2388,-6.6001e-05,-8.8e-06,0.0,0 STARLINK-5261,1 55276U 23010H   24153.56821257 -.00000880  00000-0 -66001-4 0  9997,2 55276  69.9992 213.6681 0003201 268.8404  91.2388 14.98326558 76483,6950.204,96.107,574.293,569.844,0.0
55276.0,STARLINK-5261,PAYLOAD,2024-06-02 12:04:06,14.98330012,0.0003306,69.999,211.3118,269.895,90.183,5.5424e-05,5.68e-06,0.0,0 STARLINK-5261,1 55276U 23010H   24154.50284796  .00000568  00000-0  55424-4 0  9991,2 55276  69.9990 211.3118 0003306 269.8950  90.1830 14.98330012 76327,6950.193,96.107,574.356,569.76,0.0
55276.0,STARLINK-5261,PAYLOAD,2024-06-02 21:40:54,14.98328489,0.0003373,69.999,210.302,269.9408,90.1364,7.1431e-05,7.59e-06,0.0,0 STARLINK-5261,1 55276U 23010H   24154.90340832  .00000759  00000-0  71431-4 0  9997,2 55276  69.9990 210.3020 0003373 269.9408  90.1364 14.98328489 76687,6950.198,96.107,574.407,569.718,0.0
55276.0,STARLINK-5261,PAYLOAD,2024-06-03 10:29:58,14.98331209,0.0003384,69.9989,208.9556,269.9373,90.1399,7.5794e-05,8.11e-06,0.0,0 STARLINK-5261,1 55276U 23010H   24155.43748685  .00000811  00000-0  75794-4 0  9999,2 55276  69.9989 208.9556 0003384 269.9373  90.1399 14.98331209 76766,6950.189,96.107,574.406,569.702,0.0
55276.0,STARLINK-5261,PAYLOAD,2024-06-04 04:07:27,14.98332586,0.0003341,69.999,207.1041,270.137,89.9406,1.3046e-06,-7.7e-07,0.0,0 STARLINK-5261,1 55276U 23010H   24156.17184720 -.00000077  00000-0  13046-5 0  9993,2 55276  69.9990 207.1041 0003341 270.1370  89.9406 14.98332586 76575,6950.185,96.107,574.372,569.728,0.0
55276.0,STARLINK-5261,PAYLOAD,2024-06-04 10:31:59,14.98334792,0.0003362,69.9988,206.4309,270.089,89.9884,1.2237e-05,5.3e-07,0.0,0 STARLINK-5261,1 55276U 23010H   24156.43888487  .00000053  00000-0  12237-4 0  9996,2 55276  69.9988 206.4309 0003362 270.0890  89.9884 14.98334792 76919,6950.178,96.107,574.38,569.706,0.0
